ISS (ZARYA)             
1 25544U 98067A   26098.97303557  .00006802  00000+0  13221-3 0  9991
2 25544  51.6330 282.6294 0006364 289.6160  70.4141 15.48838774561020
CSS (TIANHE)            
1 48274U 21035A   26099.22456422  .00023140  00000+0  25896-3 0  9991
2 48274  41.4682  22.1549 0004325 166.9718 193.1234 15.62157003282383
HTV-X1                  
1 66174U 25241A   26099.29944379  .00004098  00000+0  13981-3 0  9996
2 66174  51.6369 285.4897 0007358 291.7965  68.2233 15.32591603 25636
SZ-21 MODULE            
1 66515U 25246C   26099.10187074  .00034657  00000+0  26861-3 0  9996
2 66515  41.4751  15.8070 0003954 247.3606 112.6819 15.71099635 22858
POISK                   
1 36086U 09060A   26098.97303557  .00006802  00000+0  13221-3 0  9999
2 36086  51.6330 282.6294 0006364 289.6160  70.4141 15.48838774560572
ISS (NAUKA)             
1 49044U 21066A   26098.97303557  .00006802  00000+0  13221-3 0  9997
2 49044  51.6330 282.6294 0006364 289.6160  70.4141 15.48838774560615
FREGAT DEB              
1 49271U 11037PF  26098.73378623  .00003254  00000+0  48703-2 0  9996
2 49271  51.6399 210.5288 0952585 128.2849 240.7644 12.40969631216425
CSS (WENTIAN)           
1 53239U 22085A   26099.22456422  .00023140  00000+0  25896-3 0  9994
2 53239  41.4682  22.1549 0004325 166.9718 193.1234 15.62157003282559
CSS (MENGTIAN)          
1 54216U 22143A   26099.22456422  .00023140  00000+0  25896-3 0  9995
2 54216  41.4682  22.1549 0004325 166.9718 193.1234 15.62157003282689
TIANZHOU-9              
1 64786U 25149A   26099.22456422  .00023140  00000+0  25896-3 0  9997
2 64786  41.4682  22.1549 0004325 166.9718 193.1234 15.62157003282682
PROGRESS-MS 32          
1 65586U 25204A   26098.97303557  .00006802  00000+0  13221-3 0  9994
2 65586  51.6330 282.6294 0006364 289.6160  70.4141 15.48838774554505
YOTSUBA-KULOVER         
1 65941U 98067XN  26098.81294020  .00837757  37004-3  11582-2 0  9999
2 65941  51.6135 258.8707 0010206 295.4245  64.5710 16.05364334 28294
BOTAN                   
1 65943U 98067XQ  26098.64751946  .00677438  22652-3  11058-2 0  9996
2 65943  51.6170 260.0512 0009699 292.0145  67.9835 16.02610542 28264
HRC MONOBLOCK CAMERA    
1 66052U 98067XR  26098.73407774  .00050551  00000+0  49303-3 0  9990
2 66052  51.6270 273.5259 0003845 247.3536 112.7053 15.65691711 27094
SHENZHOU-22             
1 66645U 25272A   26099.22456422  .00023140  00000+0  25896-3 0  9990
2 66645  41.4682  22.1549 0004325 166.9718 193.1234 15.62157003282688
SOYUZ-MS 28             
1 66664U 25275A   26098.97303557  .00006802  00000+0  13221-3 0  9990
2 66664  51.6330 282.6294 0006364 289.6160  70.4141 15.48838774560858
