[{"OBJECT_NAME":"ISS (ZARYA)","OBJECT_ID":"1998-067A","EPOCH":"2026-04-08T23:21:10.273248","MEAN_MOTION":15.48838774,"ECCENTRICITY":0.00063649,"INCLINATION":51.633,"RA_OF_ASC_NODE":282.6294,"ARG_OF_PERICENTER":289.616,"MEAN_ANOMALY":70.4141,"EPHEMERIS_TYPE":0,"CLASSIFICATION_TYPE":"U","NORAD_CAT_ID":25544,"ELEMENT_SET_NO":999,"REV_AT_EPOCH":56102,"BSTAR":0.00013220711,"MEAN_MOTION_DOT":6.802e-5,"MEAN_MOTION_DDOT":0},{"OBJECT_NAME":"POISK","OBJECT_ID":"2009-060A","EPOCH":"2026-04-08T23:21:10.273248","MEAN_MOTION":15.48838774,"ECCENTRICITY":0.00063649,"INCLINATION":51.633,"RA_OF_ASC_NODE":282.6294,"ARG_OF_PERICENTER":289.616,"MEAN_ANOMALY":70.4141,"EPHEMERIS_TYPE":0,"CLASSIFICATION_TYPE":"U","NORAD_CAT_ID":36086,"ELEMENT_SET_NO":999,"REV_AT_EPOCH":56057,"BSTAR":0.00013220711,"MEAN_MOTION_DOT":6.802e-5,"MEAN_MOTION_DDOT":0},{"OBJECT_NAME":"CSS (TIANHE)","OBJECT_ID":"2021-035A","EPOCH":"2026-04-09T05:23:22.348608","MEAN_MOTION":15.62157003,"ECCENTRICITY":0.00043254,"INCLINATION":41.4682,"RA_OF_ASC_NODE":22.1549,"ARG_OF_PERICENTER":166.9718,"MEAN_ANOMALY":193.1234,"EPHEMERIS_TYPE":0,"CLASSIFICATION_TYPE":"U","NORAD_CAT_ID":48274,"ELEMENT_SET_NO":999,"REV_AT_EPOCH":28238,"BSTAR":0.00025895542,"MEAN_MOTION_DOT":0.0002314,"MEAN_MOTION_DDOT":0},{"OBJECT_NAME":"ISS (NAUKA)","OBJECT_ID":"2021-066A","EPOCH":"2026-04-08T23:21:10.273248","MEAN_MOTION":15.48838774,"ECCENTRICITY":0.00063649,"INCLINATION":51.633,"RA_OF_ASC_NODE":282.6294,"ARG_OF_PERICENTER":289.616,"MEAN_ANOMALY":70.4141,"EPHEMERIS_TYPE":0,"CLASSIFICATION_TYPE":"U","NORAD_CAT_ID":49044,"ELEMENT_SET_NO":999,"REV_AT_EPOCH":56061,"BSTAR":0.00013220711,"MEAN_MOTION_DOT":6.802e-5,"MEAN_MOTION_DDOT":0},{"OBJECT_NAME":"FREGAT DEB","OBJECT_ID":"2011-037PF","EPOCH":"2026-04-08T17:36:39.130272","MEAN_MOTION":12.40969631,"ECCENTRICITY":0.09525854,"INCLINATION":51.6399,"RA_OF_ASC_NODE":210.5288,"ARG_OF_PERICENTER":128.2849,"MEAN_ANOMALY":240.7644,"EPHEMERIS_TYPE":0,"CLASSIFICATION_TYPE":"U","NORAD_CAT_ID":49271,"ELEMENT_SET_NO":999,"REV_AT_EPOCH":21642,"BSTAR":0.0048703458,"MEAN_MOTION_DOT":3.254e-5,"MEAN_MOTION_DDOT":0},{"OBJECT_NAME":"CSS (WENTIAN)","OBJECT_ID":"2022-085A","EPOCH":"2026-04-09T05:23:22.348608","MEAN_MOTION":15.62157003,"ECCENTRICITY":0.00043254,"INCLINATION":41.4682,"RA_OF_ASC_NODE":22.1549,"ARG_OF_PERICENTER":166.9718,"MEAN_ANOMALY":193.1234,"EPHEMERIS_TYPE":0,"CLASSIFICATION_TYPE":"U","NORAD_CAT_ID":53239,"ELEMENT_SET_NO":999,"REV_AT_EPOCH":28255,"BSTAR":0.00025895542,"MEAN_MOTION_DOT":0.0002314,"MEAN_MOTION_DDOT":0},{"OBJECT_NAME":"CSS (MENGTIAN)","OBJECT_ID":"2022-143A","EPOCH":"2026-04-09T05:23:22.348608","MEAN_MOTION":15.62157003,"ECCENTRICITY":0.00043254,"INCLINATION":41.4682,"RA_OF_ASC_NODE":22.1549,"ARG_OF_PERICENTER":166.9718,"MEAN_ANOMALY":193.1234,"EPHEMERIS_TYPE":0,"CLASSIFICATION_TYPE":"U","NORAD_CAT_ID":54216,"ELEMENT_SET_NO":999,"REV_AT_EPOCH":28268,"BSTAR":0.00025895542,"MEAN_MOTION_DOT":0.0002314,"MEAN_MOTION_DDOT":0},{"OBJECT_NAME":"TIANZHOU-9","OBJECT_ID":"2025-149A","EPOCH":"2026-04-09T05:23:22.348608","MEAN_MOTION":15.62157003,"ECCENTRICITY":0.00043254,"INCLINATION":41.4682,"RA_OF_ASC_NODE":22.1549,"ARG_OF_PERICENTER":166.9718,"MEAN_ANOMALY":193.1234,"EPHEMERIS_TYPE":0,"CLASSIFICATION_TYPE":"U","NORAD_CAT_ID":64786,"ELEMENT_SET_NO":999,"REV_AT_EPOCH":28268,"BSTAR":0.00025895542,"MEAN_MOTION_DOT":0.0002314,"MEAN_MOTION_DDOT":0},{"OBJECT_NAME":"PROGRESS-MS 32","OBJECT_ID":"2025-204A","EPOCH":"2026-04-08T23:21:10.273248","MEAN_MOTION":15.48838774,"ECCENTRICITY":0.00063649,"INCLINATION":51.633,"RA_OF_ASC_NODE":282.6294,"ARG_OF_PERICENTER":289.616,"MEAN_ANOMALY":70.4141,"EPHEMERIS_TYPE":0,"CLASSIFICATION_TYPE":"U","NORAD_CAT_ID":65586,"ELEMENT_SET_NO":999,"REV_AT_EPOCH":55450,"BSTAR":0.00013220711,"MEAN_MOTION_DOT":6.802e-5,"MEAN_MOTION_DDOT":0},{"OBJECT_NAME":"YOTSUBA-KULOVER","OBJECT_ID":"1998-067XN","EPOCH":"2026-04-08T19:30:38.033280","MEAN_MOTION":16.05364334,"ECCENTRICITY":0.00102067,"INCLINATION":51.6135,"RA_OF_ASC_NODE":258.8707,"ARG_OF_PERICENTER":295.4245,"MEAN_ANOMALY":64.571,"EPHEMERIS_TYPE":0,"CLASSIFICATION_TYPE":"U","NORAD_CAT_ID":65941,"ELEMENT_SET_NO":999,"REV_AT_EPOCH":2829,"BSTAR":0.0011581628,"MEAN_MOTION_DOT":0.00837757,"MEAN_MOTION_DDOT":0.00037004172},{"OBJECT_NAME":"BOTAN","OBJECT_ID":"1998-067XQ","EPOCH":"2026-04-08T15:32:25.681344","MEAN_MOTION":16.02610542,"ECCENTRICITY":0.00096998,"INCLINATION":51.617,"RA_OF_ASC_NODE":260.0512,"ARG_OF_PERICENTER":292.0145,"MEAN_ANOMALY":67.9835,"EPHEMERIS_TYPE":0,"CLASSIFICATION_TYPE":"U","NORAD_CAT_ID":65943,"ELEMENT_SET_NO":999,"REV_AT_EPOCH":2826,"BSTAR":0.0011058448,"MEAN_MOTION_DOT":0.00677438,"MEAN_MOTION_DDOT":0.00022652389},{"OBJECT_NAME":"HRC MONOBLOCK CAMERA","OBJECT_ID":"1998-067XR","EPOCH":"2026-04-08T17:37:04.316736","MEAN_MOTION":15.65691711,"ECCENTRICITY":0.00038457,"INCLINATION":51.627,"RA_OF_ASC_NODE":273.5259,"ARG_OF_PERICENTER":247.3536,"MEAN_ANOMALY":112.7053,"EPHEMERIS_TYPE":0,"CLASSIFICATION_TYPE":"U","NORAD_CAT_ID":66052,"ELEMENT_SET_NO":999,"REV_AT_EPOCH":2709,"BSTAR":0.00049303458,"MEAN_MOTION_DOT":0.00050551,"MEAN_MOTION_DDOT":0},{"OBJECT_NAME":"HTV-X1","OBJECT_ID":"2025-241A","EPOCH":"2026-04-09T07:11:11.943456","MEAN_MOTION":15.32591603,"ECCENTRICITY":0.00073587,"INCLINATION":51.6369,"RA_OF_ASC_NODE":285.4897,"ARG_OF_PERICENTER":291.7965,"MEAN_ANOMALY":68.2233,"EPHEMERIS_TYPE":0,"CLASSIFICATION_TYPE":"U","NORAD_CAT_ID":66174,"ELEMENT_SET_NO":999,"REV_AT_EPOCH":2563,"BSTAR":0.00013980953,"MEAN_MOTION_DOT":4.098e-5,"MEAN_MOTION_DDOT":0},{"OBJECT_NAME":"SZ-21 MODULE","OBJECT_ID":"2025-246C","EPOCH":"2026-04-09T02:26:41.631936","MEAN_MOTION":15.71099635,"ECCENTRICITY":0.00039544,"INCLINATION":41.4751,"RA_OF_ASC_NODE":15.807,"ARG_OF_PERICENTER":247.3606,"MEAN_ANOMALY":112.6819,"EPHEMERIS_TYPE":0,"CLASSIFICATION_TYPE":"U","NORAD_CAT_ID":66515,"ELEMENT_SET_NO":999,"REV_AT_EPOCH":2285,"BSTAR":0.00026861322,"MEAN_MOTION_DOT":0.00034657,"MEAN_MOTION_DDOT":0},{"OBJECT_NAME":"SHENZHOU-22","OBJECT_ID":"2025-272A","EPOCH":"2026-04-09T05:23:22.348608","MEAN_MOTION":15.62157003,"ECCENTRICITY":0.00043254,"INCLINATION":41.4682,"RA_OF_ASC_NODE":22.1549,"ARG_OF_PERICENTER":166.9718,"MEAN_ANOMALY":193.1234,"EPHEMERIS_TYPE":0,"CLASSIFICATION_TYPE":"U","NORAD_CAT_ID":66645,"ELEMENT_SET_NO":999,"REV_AT_EPOCH":28268,"BSTAR":0.00025895542,"MEAN_MOTION_DOT":0.0002314,"MEAN_MOTION_DDOT":0},{"OBJECT_NAME":"SOYUZ-MS 28","OBJECT_ID":"2025-275A","EPOCH":"2026-04-08T23:21:10.273248","MEAN_MOTION":15.48838774,"ECCENTRICITY":0.00063649,"INCLINATION":51.633,"RA_OF_ASC_NODE":282.6294,"ARG_OF_PERICENTER":289.616,"MEAN_ANOMALY":70.4141,"EPHEMERIS_TYPE":0,"CLASSIFICATION_TYPE":"U","NORAD_CAT_ID":66664,"ELEMENT_SET_NO":999,"REV_AT_EPOCH":56085,"BSTAR":0.00013220711,"MEAN_MOTION_DOT":6.802e-5,"MEAN_MOTION_DDOT":0}]
